HST                     
1 20580U 90037B   24291.93017749  .00011841  00000+0  52040-3 0  9990
2 20580  28.4688 241.3873 0002685 296.9368  63.0951 15.20311841695713
